[{"OBJECT_NAME":"KUIPER-00269","OBJECT_ID":"2026-072Q","EPOCH":"2026-04-11T20:00:01.000224","MEAN_MOTION":15.37569838,"ECCENTRICITY":0.0004645,"INCLINATION":51.8739,"RA_OF_ASC_NODE":137.8046,"ARG_OF_PERICENTER":111.7589,"MEAN_ANOMALY":200.4656,"EPHEMERIS_TYPE":0,"CLASSIFICATION_TYPE":"U","NORAD_CAT_ID":68587,"ELEMENT_SET_NO":999,"REV_AT_EPOCH":208,"BSTAR":-0.00014749,"MEAN_MOTION_DOT":-5.914e-5,"MEAN_MOTION_DDOT":0},{"OBJECT_NAME":"KUIPER-00272","OBJECT_ID":"2026-072R","EPOCH":"2026-04-11T20:00:01.000224","MEAN_MOTION":15.3733615,"ECCENTRICITY":0.0005984,"INCLINATION":51.8723,"RA_OF_ASC_NODE":137.8231,"ARG_OF_PERICENTER":125.458,"MEAN_ANOMALY":178.4627,"EPHEMERIS_TYPE":0,"CLASSIFICATION_TYPE":"U","NORAD_CAT_ID":68588,"ELEMENT_SET_NO":999,"REV_AT_EPOCH":130,"BSTAR":-0.00016654,"MEAN_MOTION_DOT":-6.581e-5,"MEAN_MOTION_DDOT":0},{"OBJECT_NAME":"KUIPER-00285","OBJECT_ID":"2026-072S","EPOCH":"2026-04-11T20:00:01.000224","MEAN_MOTION":15.37244777,"ECCENTRICITY":0.0006483,"INCLINATION":51.8732,"RA_OF_ASC_NODE":137.8282,"ARG_OF_PERICENTER":131.3403,"MEAN_ANOMALY":169.6779,"EPHEMERIS_TYPE":0,"CLASSIFICATION_TYPE":"U","NORAD_CAT_ID":68589,"ELEMENT_SET_NO":999,"REV_AT_EPOCH":224,"BSTAR":-0.00017286,"MEAN_MOTION_DOT":-6.798e-5,"MEAN_MOTION_DDOT":0},{"OBJECT_NAME":"KUIPER-00286","OBJECT_ID":"2026-072T","EPOCH":"2026-04-11T20:00:01.000224","MEAN_MOTION":15.37666471,"ECCENTRICITY":0.0004328,"INCLINATION":51.8731,"RA_OF_ASC_NODE":137.8047,"ARG_OF_PERICENTER":115.0351,"MEAN_ANOMALY":197.7474,"EPHEMERIS_TYPE":0,"CLASSIFICATION_TYPE":"U","NORAD_CAT_ID":68590,"ELEMENT_SET_NO":999,"REV_AT_EPOCH":130,"BSTAR":-0.00014506,"MEAN_MOTION_DOT":-5.84e-5,"MEAN_MOTION_DDOT":0},{"OBJECT_NAME":"KUIPER-00289","OBJECT_ID":"2026-072U","EPOCH":"2026-04-11T20:00:01.000224","MEAN_MOTION":15.35934068,"ECCENTRICITY":0.0011031,"INCLINATION":51.8649,"RA_OF_ASC_NODE":137.9045,"ARG_OF_PERICENTER":147.1885,"MEAN_ANOMALY":117.7741,"EPHEMERIS_TYPE":0,"CLASSIFICATION_TYPE":"U","NORAD_CAT_ID":68591,"ELEMENT_SET_NO":999,"REV_AT_EPOCH":231,"BSTAR":-0.00028271,"MEAN_MOTION_DOT":-0.0001044,"MEAN_MOTION_DDOT":0},{"OBJECT_NAME":"KUIPER-00290","OBJECT_ID":"2026-072V","EPOCH":"2026-04-11T20:00:01.000224","MEAN_MOTION":15.36027051,"ECCENTRICITY":0.0011026,"INCLINATION":51.8635,"RA_OF_ASC_NODE":137.8992,"ARG_OF_PERICENTER":143.5388,"MEAN_ANOMALY":123.9513,"EPHEMERIS_TYPE":0,"CLASSIFICATION_TYPE":"U","NORAD_CAT_ID":68592,"ELEMENT_SET_NO":999,"REV_AT_EPOCH":130,"BSTAR":-0.00028004,"MEAN_MOTION_DOT":-0.00010375,"MEAN_MOTION_DDOT":0},{"OBJECT_NAME":"KUIPER-00293","OBJECT_ID":"2026-072W","EPOCH":"2026-04-11T20:00:01.000224","MEAN_MOTION":15.35659511,"ECCENTRICITY":0.0012045,"INCLINATION":51.8632,"RA_OF_ASC_NODE":137.9195,"ARG_OF_PERICENTER":149.9715,"MEAN_ANOMALY":107.5247,"EPHEMERIS_TYPE":0,"CLASSIFICATION_TYPE":"U","NORAD_CAT_ID":68593,"ELEMENT_SET_NO":999,"REV_AT_EPOCH":130,"BSTAR":-0.00028854,"MEAN_MOTION_DOT":-0.0001056,"MEAN_MOTION_DDOT":0},{"OBJECT_NAME":"KUIPER-00294","OBJECT_ID":"2026-072X","EPOCH":"2026-04-11T20:00:01.000224","MEAN_MOTION":15.36203272,"ECCENTRICITY":0.0009867,"INCLINATION":51.8673,"RA_OF_ASC_NODE":137.8881,"ARG_OF_PERICENTER":144.571,"MEAN_ANOMALY":128.4307,"EPHEMERIS_TYPE":0,"CLASSIFICATION_TYPE":"U","NORAD_CAT_ID":68594,"ELEMENT_SET_NO":999,"REV_AT_EPOCH":151,"BSTAR":-0.00027395,"MEAN_MOTION_DOT":-0.0001021,"MEAN_MOTION_DDOT":0},{"OBJECT_NAME":"KUIPER-00296","OBJECT_ID":"2026-072Y","EPOCH":"2026-04-11T20:00:01.000224","MEAN_MOTION":15.36592483,"ECCENTRICITY":0.0008635,"INCLINATION":51.8695,"RA_OF_ASC_NODE":137.8677,"ARG_OF_PERICENTER":138.3416,"MEAN_ANOMALY":144.4823,"EPHEMERIS_TYPE":0,"CLASSIFICATION_TYPE":"U","NORAD_CAT_ID":68595,"ELEMENT_SET_NO":999,"REV_AT_EPOCH":130,"BSTAR":-0.00025021,"MEAN_MOTION_DOT":-9.47e-5,"MEAN_MOTION_DDOT":0},{"OBJECT_NAME":"KUIPER-00297","OBJECT_ID":"2026-072Z","EPOCH":"2026-04-11T20:00:01.000224","MEAN_MOTION":15.36115438,"ECCENTRICITY":0.0010361,"INCLINATION":51.8621,"RA_OF_ASC_NODE":137.8941,"ARG_OF_PERICENTER":145.0651,"MEAN_ANOMALY":124.8419,"EPHEMERIS_TYPE":0,"CLASSIFICATION_TYPE":"U","NORAD_CAT_ID":68596,"ELEMENT_SET_NO":999,"REV_AT_EPOCH":218,"BSTAR":-0.00027778,"MEAN_MOTION_DOT":-0.0001032,"MEAN_MOTION_DDOT":0},{"OBJECT_NAME":"KUIPER-00300","OBJECT_ID":"2026-072AA","EPOCH":"2026-04-11T20:00:01.000224","MEAN_MOTION":15.36774971,"ECCENTRICITY":0.0008227,"INCLINATION":51.867,"RA_OF_ASC_NODE":137.8572,"ARG_OF_PERICENTER":138.5073,"MEAN_ANOMALY":149.7449,"EPHEMERIS_TYPE":0,"CLASSIFICATION_TYPE":"U","NORAD_CAT_ID":68597,"ELEMENT_SET_NO":999,"REV_AT_EPOCH":130,"BSTAR":-0.00024137,"MEAN_MOTION_DOT":-9.201e-5,"MEAN_MOTION_DDOT":0},{"OBJECT_NAME":"KUIPER-00301","OBJECT_ID":"2026-072AB","EPOCH":"2026-04-11T20:00:01.000224","MEAN_MOTION":15.36448687,"ECCENTRICITY":0.0008922,"INCLINATION":51.8647,"RA_OF_ASC_NODE":137.8743,"ARG_OF_PERICENTER":141.6149,"MEAN_ANOMALY":138.2439,"EPHEMERIS_TYPE":0,"CLASSIFICATION_TYPE":"U","NORAD_CAT_ID":68598,"ELEMENT_SET_NO":999,"REV_AT_EPOCH":190,"BSTAR":-0.00025501,"MEAN_MOTION_DOT":-9.602e-5,"MEAN_MOTION_DDOT":0},{"OBJECT_NAME":"KUIPER-00304","OBJECT_ID":"2026-072AC","EPOCH":"2026-04-11T20:00:01.000224","MEAN_MOTION":15.36358983,"ECCENTRICITY":0.0009577,"INCLINATION":51.866,"RA_OF_ASC_NODE":137.8789,"ARG_OF_PERICENTER":141.3621,"MEAN_ANOMALY":136.164,"EPHEMERIS_TYPE":0,"CLASSIFICATION_TYPE":"U","NORAD_CAT_ID":68599,"ELEMENT_SET_NO":999,"REV_AT_EPOCH":232,"BSTAR":-0.00026795,"MEAN_MOTION_DOT":-0.00010043,"MEAN_MOTION_DDOT":0},{"OBJECT_NAME":"KUIPER-00317","OBJECT_ID":"2026-072AD","EPOCH":"2026-04-11T20:00:01.000224","MEAN_MOTION":15.36678842,"ECCENTRICITY":0.0008647,"INCLINATION":51.8683,"RA_OF_ASC_NODE":137.8631,"ARG_OF_PERICENTER":133.8306,"MEAN_ANOMALY":151.4161,"EPHEMERIS_TYPE":0,"CLASSIFICATION_TYPE":"U","NORAD_CAT_ID":68600,"ELEMENT_SET_NO":999,"REV_AT_EPOCH":186,"BSTAR":-0.00024605,"MEAN_MOTION_DOT":-9.345e-5,"MEAN_MOTION_DDOT":0},{"OBJECT_NAME":"KUIPER-00320","OBJECT_ID":"2026-072AE","EPOCH":"2026-04-11T20:00:01.000224","MEAN_MOTION":15.3586935,"ECCENTRICITY":0.001135,"INCLINATION":51.8597,"RA_OF_ASC_NODE":137.9069,"ARG_OF_PERICENTER":147.1994,"MEAN_ANOMALY":116.0175,"EPHEMERIS_TYPE":0,"CLASSIFICATION_TYPE":"U","NORAD_CAT_ID":68601,"ELEMENT_SET_NO":999,"REV_AT_EPOCH":231,"BSTAR":-0.00028404,"MEAN_MOTION_DOT":-0.00010467,"MEAN_MOTION_DDOT":0},{"OBJECT_NAME":"STP-S29A OBJECT A","OBJECT_ID":"2026-074A","EPOCH":"2026-04-11T15:48:31.489056","MEAN_MOTION":15.23169389,"ECCENTRICITY":0.0015974,"INCLINATION":60.0175,"RA_OF_ASC_NODE":73.3716,"ARG_OF_PERICENTER":308.1994,"MEAN_ANOMALY":51.7646,"EPHEMERIS_TYPE":0,"CLASSIFICATION_TYPE":"U","NORAD_CAT_ID":68627,"ELEMENT_SET_NO":999,"REV_AT_EPOCH":64,"BSTAR":0.00038368,"MEAN_MOTION_DOT":8.899e-5,"MEAN_MOTION_DDOT":0}]
