KUIPER-00269            
1 68587U 26072Q   26101.83334491 -.00005914  00000+0 -14749-3 0  9994
2 68587  51.8739 137.8046 0004645 111.7589 200.4656 15.37569838  2087
KUIPER-00272            
1 68588U 26072R   26101.83334491 -.00006581  00000+0 -16654-3 0  9993
2 68588  51.8723 137.8231 0005984 125.4580 178.4627 15.37336150  1302
KUIPER-00285            
1 68589U 26072S   26101.83334491 -.00006798  00000+0 -17286-3 0  9996
2 68589  51.8732 137.8282 0006483 131.3403 169.6779 15.37244777  2241
KUIPER-00286            
1 68590U 26072T   26101.83334491 -.00005840  00000+0 -14506-3 0  9997
2 68590  51.8731 137.8047 0004328 115.0351 197.7474 15.37666471  1307
KUIPER-00289            
1 68591U 26072U   26101.83334491 -.00010440  00000+0 -28271-3 0  9994
2 68591  51.8649 137.9045 0011031 147.1885 117.7741 15.35934068  2311
KUIPER-00290            
1 68592U 26072V   26101.83334491 -.00010375  00000+0 -28004-3 0  9996
2 68592  51.8635 137.8992 0011026 143.5388 123.9513 15.36027051  1309
KUIPER-00293            
1 68593U 26072W   26101.83334491 -.00010560  00000+0 -28854-3 0  9996
2 68593  51.8632 137.9195 0012045 149.9715 107.5247 15.35659511  1302
KUIPER-00294            
1 68594U 26072X   26101.83334491 -.00010210  00000+0 -27395-3 0  9998
2 68594  51.8673 137.8881 0009867 144.5710 128.4307 15.36203272  1515
KUIPER-00296            
1 68595U 26072Y   26101.83334491 -.00009470  00000+0 -25021-3 0  9999
2 68595  51.8695 137.8677 0008635 138.3416 144.4823 15.36592483  1302
KUIPER-00297            
1 68596U 26072Z   26101.83334491 -.00010320  00000+0 -27778-3 0  9997
2 68596  51.8621 137.8941 0010361 145.0651 124.8419 15.36115438  2182
KUIPER-00300            
1 68597U 26072AA  26101.83334491 -.00009201  00000+0 -24137-3 0  9990
2 68597  51.8670 137.8572 0008227 138.5073 149.7449 15.36774971  1305
KUIPER-00301            
1 68598U 26072AB  26101.83334491 -.00009602  00000+0 -25501-3 0  9992
2 68598  51.8647 137.8743 0008922 141.6149 138.2439 15.36448687  1901
KUIPER-00304            
1 68599U 26072AC  26101.83334491 -.00010043  00000+0 -26795-3 0  9990
2 68599  51.8660 137.8789 0009577 141.3621 136.1640 15.36358983  2323
KUIPER-00317            
1 68600U 26072AD  26101.83334491 -.00009345  00000+0 -24605-3 0  9994
2 68600  51.8683 137.8631 0008647 133.8306 151.4161 15.36678842  1865
KUIPER-00320            
1 68601U 26072AE  26101.83334491 -.00010467  00000+0 -28404-3 0  9993
2 68601  51.8597 137.9069 0011350 147.1994 116.0175 15.35869350  2310
STP-S29A OBJECT A       
1 68627U 26074A   26101.65869779  .00008899  00000+0  38368-3 0  9999
2 68627  60.0175  73.3716 0015974 308.1994  51.7646 15.23169389   643
